GLOBALSTAR M045         
1 25676U 99019A   25194.84500719 -.00000076  00000+0  15514-3 0  9991
2 25676  51.9943 229.2906 0000412 226.3140 304.8631 12.27064004196663
GLOBALSTAR M019         
1 25677U 99019B   25195.21720993 -.00000016  00000+0  76855-3 0  9991
2 25677  51.9901   0.4955 0001629  48.8993 122.6155 12.13873560188618
GLOBALSTAR M042         
1 25679U 99019D   25194.82893367 -.00000084  00000+0  74016-4 0  9998
2 25679  52.0039 335.7448 0002720   9.8867 142.1322 12.22084196188516
GLOBALSTAR M025         
1 25770U 99031A   25194.84635978 -.00000046  00000+0  65971-3 0  9995
2 25770  51.9819  97.5133 0001156 186.8806 256.5413 11.22559795484709
GLOBALSTAR M049         
1 25771U 99031B   25194.95391069 -.00000098  00000+0 -11389-2 0  9999
2 25771  51.9860 133.3730 0003242  45.7330 314.3732 11.12116964120408
GLOBALSTAR M047         
1 25772U 99031C   25194.90651289 -.00000059  00000+0  28113-3 0  9998
2 25772  51.9820 127.8967 0016751 310.3128  49.6214 11.31928956474138
